HST                     
1 20580U 90037B   25162.87683047  .00004542  00000+0  16727-3 0  9993
2 20580  28.4685  80.9077 0002578  36.3649 323.7121 15.25263214731870
POLAR                   
1 23802U 96013A   25163.33794351  .00000210  00000+0  00000+0 0  9997
2 23802  79.4404 231.0985 6120774 221.5630  70.6229  1.29846807140038
SWAS                    
1 25560U 98071A   25163.51833379  .00003180  00000+0  22402-3 0  9993
2 25560  69.8970  98.2574 0003547 126.3712 233.7778 15.06091272441802
CXO                     
1 25867U 99040B   25166.79103061  .00000653  00000+0  00000+0 0  9999
2 25867  49.4464 129.8236 8423854 309.4364   0.1508  0.37798634 27094
XMM-NEWTON              
1 25989U 99066A   25165.38372271  .00000115  00000+0  00000+0 0  9990
2 25989  66.2725 287.8484 4848166  71.3039   0.2720  0.50134416 35524
TERRA                   
1 25994U 99068A   25163.52174523  .00000385  00000+0  88195-4 0  9997
2 25994  97.9981 221.6431 0001555 355.3310 143.3368 14.60707078355752
CLUSTER II-FM7 (SAMBA)  
1 26410U 00041A   25164.85059946  .00002091  00000+0  00000+0 0  9992
2 26410 144.2915  11.4659 8369360 226.8100 359.9638  0.44818814 30410
CLUSTER II-FM5 (RUMBA)  
1 26463U 00045A   25163.16362143  .00009186  00000+0  00000+0 0  9995
2 26463 151.9587  75.7849 9076081 294.5303   1.1707  0.42926591 30935
CLUSTER II-FM8 (TANGO)  
1 26464U 00045B   25164.17322430  .00002170  00000+0  00000+0 0  9999
2 26464 144.5648  11.8611 8373217 227.0565   0.0272  0.44422884 18659
ODIN                    
1 26702U 01007A   25163.50067499  .00029469  00000+0  73118-3 0  9994
2 26702  97.4440 187.0283 0007514  88.1304 272.0802 15.40289542332646
TIMED                   
1 26998U 01055B   25163.53309922  .00001246  00000+0  12063-3 0  9992
2 26998  74.0689 258.5512 0001361 237.3265 122.7788 14.93970767275739
CORIOLIS                
1 27640U 03001A   25163.02512937  .00000071  00000+0  54185-4 0  9993
2 27640  98.7118 170.5910 0013713 194.3846 165.6942 14.19791470161653
SORCE                   
1 27651U 03004A   25163.50558139  .00002084  00000+0  17328-3 0  9998
2 27651  39.9902 205.8985 0018759 271.1445  88.7198 15.00569633216318
MOST                    
1 27843U 03031D   25163.54383110  .00000059  00000+0  47197-4 0  9998
2 27843  98.7047 171.4206 0008885 236.0195 124.0139 14.21210098138209
SCISAT 1                
1 27858U 03036A   25162.80609812  .00000399  00000+0  56605-4 0  9998
2 27858  73.9289 186.8399 0008326 326.3695  33.6952 14.80722211176614
SWIFT                   
1 28485U 04047A   25163.13859105  .00015888  00000+0  38927-3 0  9992
2 28485  20.5551  88.0552 0005591 319.1595  40.8426 15.38301382129468
HINODE (SOLAR-B)        
1 29479U 06041A   25162.80278536  .00000614  00000+0  11571-3 0  9995
2 29479  98.0712 179.2028 0018301  27.1993 333.0166 14.67920206   529
SHIJIAN-6 02A (SJ-6 02A)
1 29505U 06046A   25163.55306414  .00005140  00000+0  30771-3 0  9992
2 29505  97.6810 197.2637 0002935   5.8553 354.2710 15.11463084 16455
SHIJIAN-6 02B (SJ-6 02B)
1 29506U 06046B   25163.52550265  .00000707  00000+0  61807-4 0  9994
2 29506  97.7037 191.0345 0003687 217.9627 142.1337 14.99864097 15305
FGRST (GLAST)           
1 33053U 08029A   25163.52614958  .00002814  00000+0  10858-3 0  9999
2 33053  25.5819 245.7378 0008185 294.3336  65.6346 15.21136199939654
SDO                     
1 36395U 10005A   25162.86104000 -.00000077  00000+0  00000+0 0  9990
2 36395  33.8745  92.0095 0000327  85.2145 291.3265  1.00271322 56355
CRYOSAT 2               
1 36508U 10013A   25163.18714085  .00000189  00000+0  46227-4 0  9990
2 36508  92.0089 187.9180 0003263 104.6402 255.5167 14.51911590804433
X-SAT                   
1 37389U 11015C   25163.50262597  .00000093  00000+0  57178-4 0  9994
2 37389  98.3114 154.0701 0013920 354.1311   5.9704 14.25042126735545
GCOM-W1 (SHIZUKU)       
1 38337U 12025A   25162.83525897  .00000389  00000+0  96327-4 0  9997
2 38337  98.2019 103.6993 0001529  76.2778 343.5541 14.57114362695100
NUSTAR                  
1 38358U 12031A   25162.91668981  .00015777  00000+0  10532-2 0  9997
2 38358   6.0279 280.9005 0008125  10.1663 185.7215 15.03848408708409
NEOSSAT                 
1 39089U 13009D   25162.52063605  .00000137  00000+0  62359-4 0  9994
2 39089  98.4071 346.6327 0009799 271.6948  88.3115 14.35612863643561
BRITE-AUSTRIA           
1 39091U 13009F   25162.49214199  .00000139  00000+0  62185-4 0  9998
2 39091  98.3880 346.3914 0008990 266.8798  93.1360 14.36311350643846
IRIS                    
1 39197U 13033A   25163.03423809  .00000899  00000+0  11236-3 0  9996
2 39197  97.9516 358.3310 0026463  88.9636 271.4610 14.84580015645453
HISAKI (SPRINT-A)       
1 39253U 13049A   25163.55209325  .00000132  00000+0  87873-4 0  9999
2 39253  29.7216 299.1828 0136983 260.3299  98.1775 13.55493517582275
CASSIOPE                
1 39265U 13055A   25162.95822075  .00015883 -53190-6  24962-3 0  9999
2 39265  80.9405 146.4399 0391032 205.1478 153.0252 14.97864778611753
STSAT-3                 
1 39422U 13066G   25163.53033960  .00002728  00000+0  22483-3 0  9992
2 39422  97.5613 136.5893 0018447 217.1473 142.8475 14.99749282628740
SWARM B                 
1 39451U 13067A   25163.18303314  .00002938  00000+0  11540-3 0  9994
2 39451  87.7442  94.4395 0003189  82.8226 277.3384 15.25300996641396
SWARM A                 
1 39452U 13067B   25163.15404317  .00006839  00000+0  15760-3 0  9999
2 39452  87.3409 192.5089 0003272  93.3455 266.8176 15.42383642649107
SWARM C                 
1 39453U 13067C   25163.15396575  .00006827  00000+0  15729-3 0  9998
2 39453  87.3408 191.0999 0003297  93.5100 266.6533 15.42386110649071
BRITE-CA1 (TORONTO)     
1 40020U 14033L   25163.42815449  .00000677  00000+0  11154-3 0  9995
2 40020  97.9263 295.5673 0080517  21.4996 338.9561 14.71631657587920
OCO 2                   
1 40059U 14035A   25163.16379711  .00000399  00000+0  98650-4 0  9995
2 40059  98.2016 104.7732 0001682  77.8318 282.3069 14.57108703582170
BRITE-PL2 (HEWELIUSZ)   
1 40119U 14049B   25163.23496673  .00001896  00000+0  18982-3 0  9994
2 40119  97.8908 268.4756 0013249 254.0041 105.9718 14.92574208586317
MMS 1                   
1 40482U 15011A   25163.58334491 -.00000557  00000+0  00000+0 0  9996
2 40482  64.5650 355.3855 8714930 159.3511 335.4864  0.28570876 16404
MMS 2                   
1 40483U 15011B   25163.58334491 -.00000556  00000+0  00000+0 0  9996
2 40483  64.5471 355.3916 8712809 159.3457 335.4821  0.28574048 16381
MMS 3                   
1 40484U 15011C   25163.58334491 -.00000556  00000+0  00000+0 0  9997
2 40484  64.5832 355.3748 8712686 159.3486 335.4731  0.28573943 16384
MMS 4                   
1 40485U 15011D   25163.58334491 -.00000555  00000+0  00000+0 0  9997
2 40485  64.5786 355.3886 8712168 159.3431 334.6457  0.28624983 16388
ASTROSAT                
1 40930U 15052A   25163.02410422  .00001443  00000+0  97201-4 0  9995
2 40930   5.9976 297.6295 0007748 157.0576 202.9898 14.81430939524877
DAMPE                   
1 41173U 15078A   25163.55012002  .00001174  00000+0  43766-4 0  9991
2 41173  97.4475 162.7166 0011004 313.0026  47.0291 15.29447843528021
PISAT                   
1 41784U 16059B   25163.55828238  .00000771  00000+0  14211-3 0  9999
2 41784  97.8152 175.2715 0028356 307.7806  52.0831 14.67945362465495
HXMT (HUIYAN)           
1 42758U 17034A   25163.22390023  .00004336  00000+0  24488-3 0  9993
2 42758  43.0152  75.8170 0035655 326.5726  33.2870 15.13810977441527
FLYING LAPTOP           
1 42831U 17042G   25162.92278731  .00001252  00000+0  10851-3 0  9994
2 42831  97.4050 330.3970 0011008 304.9770  55.0419 14.98737685430953
ZHANGHENG 1 (CSES)      
1 43194U 18015C   25163.50129386  .00008120  00000+0  36973-3 0  9998
2 43194  97.6492 317.6829 0012461 145.7474 214.4567 15.20892635408453
SALSAT                  
1 46495U 20068K   25162.91588861  .00004741  00000+0  20594-3 0  9994
2 46495  97.8600 141.0520 0012300 146.8216 213.3793 15.22765594258882
IXPE                    
1 49954U 21121A   25162.91668981  .00010122  00000+0  62315-3 0  9997
2 49954   0.2296 228.0457 0008304 255.3544 149.9440 15.05515994  5520
